[{"OBJECT_NAME":"STARLINK-34938","OBJECT_ID":"2025-179B","EPOCH":"2026-03-09T15:58:21.453312","MEAN_MOTION":15.05653933,"ECCENTRICITY":0.00014446,"INCLINATION":97.604,"RA_OF_ASC_NODE":112.923,"ARG_OF_PERICENTER":92.9274,"MEAN_ANOMALY":267.2118,"EPHEMERIS_TYPE":0,"CLASSIFICATION_TYPE":"U","NORAD_CAT_ID":65236,"ELEMENT_SET_NO":999,"REV_AT_EPOCH":3186,"BSTAR":0.00017641376,"MEAN_MOTION_DOT":2.486e-5,"MEAN_MOTION_DDOT":0},{"OBJECT_NAME":"FENGYUN 1C DEB","OBJECT_ID":"1999-025AKL","EPOCH":"2026-03-09T14:47:46.011264","MEAN_MOTION":14.88806868,"ECCENTRICITY":0.0088849,"INCLINATION":98.9015,"RA_OF_ASC_NODE":300.2677,"ARG_OF_PERICENTER":245.5096,"MEAN_ANOMALY":169.9787,"EPHEMERIS_TYPE":0,"CLASSIFICATION_TYPE":"U","NORAD_CAT_ID":30546,"ELEMENT_SET_NO":999,"REV_AT_EPOCH":1749,"BSTAR":0.00087367,"MEAN_MOTION_DOT":8.737e-5,"MEAN_MOTION_DDOT":0}]
